{
  "norad_id": 65022,
  "name": "STARLINK-34789",
  "history": [
    {
      "epoch": "2026-03-28T17:48:03.344832Z",
      "apogee_km": 475.9798027712086,
      "perigee_km": 474.40107026293117,
      "latitude_deg": 6.2446494476033e-05,
      "longitude_deg": 112.76101568183198,
      "height_km": 475.82805989886236,
      "semi_major_axis_km": 6853.327436517069,
      "eccentricity": 0.00011518,
      "inclination_deg": 53.1582,
      "raan_deg": 205.9327,
      "arg_perigee_deg": 70.7301,
      "mean_anomaly_deg": 289.3825,
      "mean_motion_rev_day": 15.3020825
    }
  ]
}